[{"OBJECT_NAME":"STARLINK-4312","OBJECT_ID":"2022-077Y","EPOCH":"2026-03-09T22:37:33.331296","MEAN_MOTION":15.01259749,"ECCENTRICITY":0.00020696,"INCLINATION":97.6015,"RA_OF_ASC_NODE":250.4555,"ARG_OF_PERICENTER":194.3253,"MEAN_ANOMALY":165.7913,"EPHEMERIS_TYPE":0,"CLASSIFICATION_TYPE":"U","NORAD_CAT_ID":53065,"ELEMENT_SET_NO":999,"REV_AT_EPOCH":20095,"BSTAR":4.464884e-6,"MEAN_MOTION_DOT":-1.0e-8,"MEAN_MOTION_DDOT":0},{"OBJECT_NAME":"DELTA 1 DEB","OBJECT_ID":"1975-004G","EPOCH":"2026-03-09T15:36:08.786016","MEAN_MOTION":14.94952077,"ECCENTRICITY":0.0108933,"INCLINATION":98.7496,"RA_OF_ASC_NODE":312.2418,"ARG_OF_PERICENTER":37.6041,"MEAN_ANOMALY":323.2729,"EPHEMERIS_TYPE":0,"CLASSIFICATION_TYPE":"U","NORAD_CAT_ID":8679,"ELEMENT_SET_NO":999,"REV_AT_EPOCH":62753,"BSTAR":0.0013803,"MEAN_MOTION_DOT":0.00016927,"MEAN_MOTION_DDOT":0}]
